0 COSMOS 374 DEB
1 04667U 70089K   13282.49537462  .00000931  00000-0  31924-3 0  6737
2 04667 062.9392 045.8792 0747163 028.7876 034.9647 13.44034471 62201
0 COSMOS 374 DEB
1 04667U 70089K   13284.12940433  .00001069  00000-0  36039-3 0  6741
2 04667 062.9395 041.5773 0747265 028.9416 021.2515 13.44036519 62423
0 COSMOS 374 DEB
1 04667U 70089K   13285.47124802  .00000862  00000-0  29791-3 0  6752
2 04667 062.9397 038.0448 0747359 029.0652 033.8107 13.44039681 62602
0 COSMOS 374 DEB
1 04667U 70089K   13286.51499890  .00000966  00000-0  32928-3 0  6762
2 04667 062.9398 035.2970 0747448 029.1637 044.0471 13.44041885 62747
0 COSMOS 374 DEB
1 04667U 70089K   13287.77994567  .00001441  00000-0  47180-3 0  6778
2 04667 062.9398 031.9667 0747517 029.2846 044.5566 13.44046317 62917
0 COSMOS 374 DEB
1 04667U 70089K   13289.11643926  .00001608  00000-0  52163-3 0  6781
2 04667 062.9397 028.4482 0747619 029.4113 031.2763 13.44052562 63095
0 COSMOS 374 DEB
1 04667U 70089K   13290.31277792  .00001554  00000-0  50503-3 0  6796
2 04667 062.9396 025.2988 0747716 029.5269 059.8634 13.44055896 63255
0 COSMOS 374 DEB
1 04667U 70089K   13291.42542008  .00001495  00000-0  48718-3 0  6805
2 04667 062.9395 022.3694 0747777 029.6319 043.4995 13.44058719 63403
0 COSMOS 374 DEB
1 04667U 70089K   13292.46829947  .00001572  00000-0  51010-3 0  6816
2 04667 062.9393 019.6237 0747842 029.7250 049.5972 13.44060867 63545
0 COSMOS 374 DEB
1 04667U 70089K   13293.51257749  .00001981  00000-0  63306-3 0  6824
2 04667 062.9396 016.8759 0747749 029.8277 062.4663 13.44062802 63689
0 COSMOS 374 DEB
1 04667U 70089K   13294.55747334  .00001909  00000-0  61074-3 0  6834
2 04667 062.9391 014.1229 0747954 029.9214 078.3405 13.44068261 63828
0 COSMOS 374 DEB
1 04667U 70089K   13295.81950528  .00001945  00000-0  62123-3 0  6842
2 04667 062.9391 010.8000 0748034 030.0373 064.8760 13.44072024 63991
